NOAA-18
1 28654U 05018A   19351.90238355 +.00000048 +00000-0 +50888-4 0  9998
2 28654 099.0722 041.3829 0014557 028.8650 331.3324 14.12474899751140
